[{"OBJECT_NAME":"STARLINK-31639","OBJECT_ID":"2024-050H","EPOCH":"2026-03-09T13:55:05.200320","MEAN_MOTION":15.30184742,"ECCENTRICITY":0.0001337,"INCLINATION":53.1601,"RA_OF_ASC_NODE":181.3682,"ARG_OF_PERICENTER":90.9679,"MEAN_ANOMALY":269.1475,"EPHEMERIS_TYPE":0,"CLASSIFICATION_TYPE":"U","NORAD_CAT_ID":59261,"ELEMENT_SET_NO":999,"REV_AT_EPOCH":11053,"BSTAR":1.0806e-5,"MEAN_MOTION_DOT":-3.9e-7,"MEAN_MOTION_DDOT":0},{"OBJECT_NAME":"USA 55","OBJECT_ID":"1990-028B","EPOCH":"2026-03-09T23:32:27.967200","MEAN_MOTION":15.43003152,"ECCENTRICITY":0.00579189,"INCLINATION":94.0887,"RA_OF_ASC_NODE":87.6293,"ARG_OF_PERICENTER":152.9949,"MEAN_ANOMALY":207.4341,"EPHEMERIS_TYPE":0,"CLASSIFICATION_TYPE":"U","NORAD_CAT_ID":20547,"ELEMENT_SET_NO":999,"REV_AT_EPOCH":98658,"BSTAR":0.00013659834,"MEAN_MOTION_DOT":6.373e-5,"MEAN_MOTION_DDOT":0}]
